NORAD_CAT_ID,OBJECT_NAME,OBJECT_TYPE,EPOCH,MEAN_MOTION,ECCENTRICITY,INCLINATION,RA_OF_ASC_NODE,ARG_OF_PERICENTER,MEAN_ANOMALY,BSTAR,MEAN_MOTION_DOT,MEAN_MOTION_DDOT,TLE_LINE0,TLE_LINE1,TLE_LINE2,SEMIMAJOR_AXIS,PERIOD,APOGEE,PERIGEE,DECAYED
53032.0,STARLINK-4115,PAYLOAD,2022-10-19 22:00:00,15.08828458,0.0001440999999999,53.2175,236.1965,72.2665,119.3391,0.0027904,0.00044387,0.0,0 STARLINK-4115,1 53032U 22076AY  22292.91667824  .00044387  00000-0  27904-2 0  9990,2 53032  53.2175 236.1965 0001441  72.2665 119.3391 15.08828458 16753,6917.916,95.438,540.778,538.784,0.0
53032.0,STARLINK-4115,PAYLOAD,2022-10-20 08:00:01,15.0883718,0.0001588999999999,53.2165,234.3217,66.0466,230.0617,0.0003471,5.24e-05,0.0,0 STARLINK-4115,1 53032U 22076AY  22293.33334491  .00005240  00000-0  34710-3 0  9997,2 53032  53.2165 234.3217 0001589  66.0466 230.0617 15.08837180 16816,6917.889,95.438,540.8530000000002,538.655,0.0
53032.0,STARLINK-4115,PAYLOAD,2022-10-20 14:00:01,15.08830724,0.000147,53.217,233.1997,72.5081,142.3007,-0.00048637,-8.018e-05,0.0,0 STARLINK-4115,1 53032U 22076AY  22293.58334491 -.00008018  00000-0 -48637-3 0  9995,2 53032  53.2170 233.1997 0001470  72.5081 142.3007 15.08830724  1301,6917.909000000002,95.438,540.7909999999998,538.757,0.0
53032.0,STARLINK-4115,PAYLOAD,2022-10-20 22:00:00,15.0884402,0.0001506999999999,53.2169,231.7035,76.6898,149.6902,-0.00016167,-2.860000000000001e-05,0.0,0 STARLINK-4115,1 53032U 22076AY  22293.91667824 -.00002860  00000-0 -16167-3 0  9993,2 53032  53.2169 231.7035 0001507  76.6898 149.6902 15.08844020  1306,6917.868,95.437,540.776,538.691,0.0
53032.0,STARLINK-4115,PAYLOAD,2022-10-21 14:00:01,15.08830346,0.0001396999999999,53.2169,228.7105,72.4654,177.1205,6.7438e-05,7.85e-06,0.0,0 STARLINK-4115,1 53032U 22076AY  22294.58334491  .00000785  00000-0  67438-4 0  9998,2 53032  53.2169 228.7105 0001397  72.4654 177.1205 15.08830346  1309,6917.91,95.438,540.741,538.808,0.0
53032.0,STARLINK-4115,PAYLOAD,2022-10-21 22:00:00,15.08849954,0.0001426999999999,53.2166,227.2128,74.2595,186.9061,-0.00059837,-9.801e-05,0.0,0 STARLINK-4115,1 53032U 22076AY  22294.91667824 -.00009801  00000-0 -59837-3 0  9997,2 53032  53.2166 227.2128 0001427  74.2595 186.9061 15.08849954  1306,6917.85,95.437,540.702,538.7280000000002,0.0
53032.0,STARLINK-4115,PAYLOAD,2022-10-22 14:00:01,15.08823491,0.0001315999999999,53.2168,224.2197,69.8903,214.48,0.0014425999999999,0.00022735,0.0,0 STARLINK-4115,1 53032U 22076AY  22295.58334491  .00022735  00000-0  14426-2 0  9995,2 53032  53.2168 224.2197 0001316  69.8903 214.4800 15.08823491  1307,6917.931,95.439,540.706,538.885,0.0
53032.0,STARLINK-4115,PAYLOAD,2022-10-22 22:00:00,15.08865699,0.0001375999999999,53.2169,222.7237,72.0423,223.9144,1.8792e-05,1.1e-07,0.0,0 STARLINK-4115,1 53032U 22076AY  22295.91667824  .00000011  00000-0  18792-4 0  9996,2 53032  53.2169 222.7237 0001376  72.0423 223.9144 15.08865699  1307,6917.802,95.436,540.619,538.715,0.0
53032.0,STARLINK-4115,PAYLOAD,2022-10-23 00:00:02,15.08873254,0.0001396999999999,53.2168,222.3501,68.5164,320.4075,-0.0011087,-0.00017906,0.0,0 STARLINK-4115,1 53032U 22076AY  22296.00002315 -.00017906  00000-0 -11087-2 0  9996,2 53032  53.2168 222.3501 0001397  68.5164 320.4075 15.08873254 17210,6917.779,95.435,540.61,538.677,0.0
53032.0,STARLINK-4115,PAYLOAD,2022-10-23 14:00:01,15.08827454,0.000135,53.2173,219.7304,68.4792,250.741,0.0010984999999999,0.00017232,0.0,0 STARLINK-4115,1 53032U 22076AY  22296.58334491  .00017232  00000-0  10985-2 0  9998,2 53032  53.2173 219.7304 0001350  68.4792 250.7410 15.08827454  1304,6917.919,95.438,540.7180000000002,538.85,0.0
53032.0,STARLINK-4115,PAYLOAD,2022-10-23 22:00:00,15.08871728,0.0001415,53.2175,218.2346,69.666,261.1347,-0.0039378,-0.00062469,0.0,0 STARLINK-4115,1 53032U 22076AY  22296.91667824 -.00062469  00000-0 -39378-2 0  9995,2 53032  53.2175 218.2346 0001415  69.6660 261.1347 15.08871728  1303,6917.783,95.436,540.627,538.67,0.0
53032.0,STARLINK-4115,PAYLOAD,2022-10-24 06:00:00,15.08819385,0.0001484,53.2175,216.7395,60.0783,282.3288,-0.0018495,-0.00029586,0.0,0 STARLINK-4115,1 53032U 22076AY  22297.25001157 -.00029586  00000-0 -18495-2 0  9994,2 53032  53.2175 216.7395 0001484  60.0783 282.3288 15.08819385 17405,6917.943,95.439,540.835,538.7819999999998,0.0
53032.0,STARLINK-4115,PAYLOAD,2022-10-24 14:00:01,15.08745176,0.0001412,53.2178,215.2414,68.2848,285.6929,0.0047741,0.00076317,0.0,0 STARLINK-4115,1 53032U 22076AY  22297.58334491  .00076317  00000-0  47741-2 0  9998,2 53032  53.2178 215.2414 0001412  68.2848 285.6929 15.08745176  1303,6918.17,95.444,541.012,539.058,0.0
53032.0,STARLINK-4115,PAYLOAD,2022-10-24 22:00:00,15.08819476,0.0001523,53.218,213.746,67.3194,298.1654,-0.00099209,-0.00016033,0.0,0 STARLINK-4115,1 53032U 22076AY  22297.91667824 -.00016033  00000-0 -99209-3 0  9992,2 53032  53.2180 213.7460 0001523  67.3194 298.1654 15.08819476  1306,6917.943,95.439,540.862,538.755,0.0
53032.0,STARLINK-4115,PAYLOAD,2022-10-25 06:00:00,15.08795423,0.0001588999999999,53.2178,212.2508,59.9919,317.0556,0.0029915,0.00047585,0.0,0 STARLINK-4115,1 53032U 22076AY  22298.25001157  .00047585  00000-0  29915-2 0  9991,2 53032  53.2178 212.2508 0001589  59.9919 317.0556 15.08795423 17555,6918.017,95.44,540.981,538.7819999999998,0.0
53032.0,STARLINK-4115,PAYLOAD,2022-10-25 14:00:01,15.08801864,0.0001472,53.2181,210.7528,68.9648,319.6526,0.0028986999999999,0.00046098,0.0,0 STARLINK-4115,1 53032U 22076AY  22298.58334491  .00046098  00000-0  28987-2 0  9993,2 53032  53.2181 210.7528 0001472  68.9648 319.6526 15.08801864  1302,6917.996999999999,95.44,540.88,538.844,0.0
53032.0,STARLINK-4115,PAYLOAD,2022-10-25 22:00:01,15.08849451,0.0001567,53.2181,209.2574,67.4015,332.8432,-0.0012005,-0.00019348,0.0,0 STARLINK-4115,1 53032U 22076AY  22298.91668981 -.00019348  00000-0 -12005-2 0  9998,2 53032  53.2181 209.2574 0001567  67.4015 332.8432 15.08849451  1300,6917.852,95.437,540.8009999999998,538.632,0.0
53032.0,STARLINK-4115,PAYLOAD,2022-10-26 14:00:01,15.08835311,0.0001496999999999,53.2178,206.264,70.997,352.3938,0.0027579,0.00043872,0.0,0 STARLINK-4115,1 53032U 22076AY  22299.58334491  .00043872  00000-0  27579-2 0  9997,2 53032  53.2178 206.2640 0001497  70.9970 352.3938 15.08835311  1306,6917.895,95.438,540.795,538.724,0.0
53032.0,STARLINK-4115,PAYLOAD,2022-10-26 16:00:01,15.08849135,0.0001541,53.2178,205.8898,72.7719,83.5799,0.0014112,0.00022248,0.0,0 STARLINK-4115,1 53032U 22076AY  22299.66668981  .00022248  00000-0  14112-2 0  9993,2 53032  53.2178 205.8898 0001541  72.7719  83.5799 15.08849135 17772,6917.852,95.437,540.784,538.651,0.0
53032.0,STARLINK-4115,PAYLOAD,2022-10-26 22:00:00,15.0887302,0.0001654,53.2178,204.7688,69.9542,5.0403,-0.003263,-0.00051892,0.0,0 STARLINK-4115,1 53032U 22076AY  22299.91667824 -.00051892  00000-0 -32630-2 0  9990,2 53032  53.2178 204.7688 0001654  69.9542   5.0403 15.08873020  1307,6917.779,95.435,540.789,538.5,0.0
53032.0,STARLINK-4115,PAYLOAD,2022-10-27 08:00:01,15.08863141,0.0001695,53.2171,202.8985,66.9222,112.5815,-0.00048289,-7.97e-05,0.0,0 STARLINK-4115,1 53032U 22076AY  22300.33334491 -.00007970  00000-0 -48289-3 0  9996,2 53032  53.2171 202.8985 0001695  66.9222 112.5815 15.08863141 17879,6917.81,95.436,540.847,538.502,0.0
53032.0,STARLINK-4115,PAYLOAD,2022-10-27 14:00:01,15.08848052,0.0001561999999999,53.2171,201.7751,73.3991,24.888,0.0014142,0.00022296,0.0,0 STARLINK-4115,1 53032U 22076AY  22300.58335648  .00022296  00000-0  14142-2 0  9994,2 53032  53.2171 201.7751 0001562  73.3991  24.8880 15.08848052  1308,6917.856,95.437,540.8009999999998,538.64,0.0
53032.0,STARLINK-4115,PAYLOAD,2022-10-27 22:00:00,15.08860085,0.0001579,53.2169,200.28,70.9848,38.8571,-0.0012781,-0.00020583,0.0,0 STARLINK-4115,1 53032U 22076AY  22300.91667824 -.00020583  00000-0 -12781-2 0  9991,2 53032  53.2169 200.2800 0001579  70.9848  38.8571 15.08860085  1308,6917.819,95.436,540.776,538.592,0.0
53032.0,STARLINK-4115,PAYLOAD,2022-10-28 08:00:01,15.08871437,0.0001518,53.2163,198.4094,66.8469,147.5737,-0.0029419,-0.00046844,0.0,0 STARLINK-4115,1 53032U 22076AY  22301.33335648 -.00046844  00000-0 -29419-2 0  9998,2 53032  53.2163 198.4094 0001518  66.8469 147.5737 15.08871437 18023,6917.784000000002,95.436,540.6990000000002,538.599,0.0
53032.0,STARLINK-4115,PAYLOAD,2022-10-28 14:00:01,15.08830011,0.0001436,53.2162,197.2861,73.4488,59.6888,0.0019089999999999,0.00030216,0.0,0 STARLINK-4115,1 53032U 22076AY  22301.58335648  .00030216  00000-0  19090-2 0  9993,2 53032  53.2162 197.2861 0001436  73.4488  59.6888 15.08830011  1301,6917.911,95.438,540.769,538.783,0.0
53032.0,STARLINK-4115,PAYLOAD,2022-10-28 22:00:01,15.08847832,0.0001575,53.2161,195.791,70.7404,73.9971,-0.0014301,-0.00022981,0.0,0 STARLINK-4115,1 53032U 22076AY  22301.91668981 -.00022981  00000-0 -14301-2 0  9991,2 53032  53.2161 195.7910 0001575  70.7404  73.9971 15.08847832  1301,6917.856,95.437,540.811,538.632,0.0
53032.0,STARLINK-4115,PAYLOAD,2022-10-29 00:00:02,15.08838871,0.0001619,53.216,195.4173,68.9044,168.735,-0.00063819,-0.0001042999999999,0.0,0 STARLINK-4115,1 53032U 22076AY  22302.00002315 -.00010430  00000-0 -63819-3 0  9990,2 53032  53.2160 195.4173 0001619  68.9044 168.7350 15.08838871 18121,6917.884,95.438,540.869,538.629,0.0
53032.0,STARLINK-4115,PAYLOAD,2022-10-29 12:00:00,15.08821148,0.0001424,53.2157,193.1713,73.6756,1.3067,0.002891,0.00045999,0.0,0 STARLINK-4115,1 53032U 22076AY  22302.50001157  .00045999  00000-0  28910-2 0  9996,2 53032  53.2157 193.1713 0001424  73.6756   1.3067 15.08821148  1307,6917.938,95.439,540.788,538.818,0.0
53032.0,STARLINK-4115,PAYLOAD,2022-10-29 22:00:01,15.088796,0.0001501,53.2156,191.3019,69.2384,110.3013,-0.0021299,-0.00034062,0.0,0 STARLINK-4115,1 53032U 22076AY  22302.91668981 -.00034062  00000-0 -21299-2 0  9999,2 53032  53.2156 191.3019 0001501  69.2384 110.3013 15.08879600  1307,6917.759,95.435,540.663,538.586,0.0
